AEHF-5 (USA 292)        
1 44481U 19051A   21338.14687090  .00000096  00000+0  00000+0 0  9992
2 44481   4.8208 305.1792 0003342 279.3549 316.1461  1.00275860  8664
TDO-1                   
1 44482U 19051B   21336.37729191  .00001521  00000+0  37841-3 0  9996
2 44482  26.4402 331.0729 7217198  11.9172 358.7214  2.36049137 19794
AEROCUBE 10B (DOUGSAT)  
1 44484U 19022C   21337.94268245  .00007127  00000+0  22642-3 0  9999
2 44484  51.6408 338.6063 0009985  69.1889 291.0161 15.33693875130151
AEROCUBE 10A (JIMSAT)   
1 44485U 19022D   21337.55175013  .00007293  00000+0  23145-3 0  9990
2 44485  51.6406 340.4975 0009971  66.0432 294.1593 15.33691916130098
2019-052A               
1 44486U 19052A   21338.50037963  .00001925  00000+0  12749-3 0  9995
2 44486  97.5236  48.9844 0019231 261.8142 223.0326 15.08363798126598
2019-052B               
1 44487U 19052B   21338.49129781  .00001843  00000+0  12059-3 0  9997
2 44487  97.5238  49.5618 0020754 264.9411 151.3550 15.08835294126645
2019-052C               
1 44488U 19052C   21338.46671389  .00002823  00000+0  18231-3 0  9998
2 44488  97.5237  49.3912 0021452 262.5179 108.0193 15.08882384126623
BRO-1                   
1 44495U 19054A   21338.36848429  .00001578  00000+0  11290-3 0  9992
2 44495  45.0199 333.7559 0012938 287.3977 176.7005 15.09222265126567
PEARL WHITE 1           
1 44497U 19054C   21338.48058343  .00001676  00000+0  11843-3 0  9998
2 44497  45.0158 333.2905 0012140 294.4584 202.2910 15.09400118126523
PEARL WHITE 2           
1 44498U 19054D   21338.46539459  .00001725  00000+0  12053-3 0  9998
2 44498  45.0154 331.4986 0012970 290.5402 203.3631 15.09677126126567
GLOBAL-4                
1 44499U 19054E   21338.35679997  .00001403  00000+0  90592-4 0  9997
2 44499  45.0144 309.7931 0015551 309.0292  50.9201 15.13772713126793
NAVSTAR 78 (USA 293)    
1 44506U 19056A   21338.03308750 -.00000071  00000+0  00000+0 0  9990
2 44506  55.5804  36.8326 0020879 182.3154 296.8842  2.00567773 16852
COSMOS 2540             
1 44517U 19057A   21338.52482296  .00000000  00000+0  38477-4 0  9990
2 44517  99.2632 346.9998 0000852 102.0624  14.7430 13.85877692114531
XIAOXIANG-1 07          
1 44519U 19058A   21338.45364494  .00002192  00000+0  22966-3 0  9993
2 44519  97.7907 342.9538 0014823  79.0415 281.2507 14.90517541123033
KX-09                   
1 44520U 19058B   21338.41504378  .00000232  00000+0  29958-4 0  9990
2 44520  97.7915 342.8686 0013497  81.4674 278.8049 14.89699269123036
ZY-1 02D                
1 44528U 19059A   21338.46928099  .00000076  00000+0  41729-4 0  9990
2 44528  98.5032  54.2059 0001751  82.2771 277.8627 14.35400770116815
BNU-1 (JINGSHI 1)       
1 44529U 19059B   21338.48084927  .00000188  00000+0  66391-4 0  9992
2 44529  98.5269  67.8442 0012991 342.6034  17.4712 14.45226581117616
TAURUS-1 (JINNIUZUO 1)  
1 44530U 19059C   21338.51270538  .00000917  00000+0  26796-3 0  9997
2 44530  98.5505  70.3133 0012842 353.1155   6.9869 14.46332157117662
SEEKER                  
1 44533U 19022K   21338.26250625  .00004735  00000+0  15680-3 0  9999
2 44533  51.6387 334.5449 0011356  63.6354 296.5792 15.33167468124119
ZHUHAI-1 03A            
1 44534U 19060A   21338.51934321  .00003190  00000+0  15233-3 0  9990
2 44534  97.4502  85.6114 0015084  19.1946  40.4496 15.19674810122499
ZHUHAI-1 03B            
1 44536U 19060C   21338.50569641  .00003103  00000+0  14845-3 0  9992
2 44536  97.4520  85.7413 0011397  20.8137  41.0463 15.19680480122501
ZHUHAI-1 03C            
1 44537U 19060D   21338.55681891  .00003229  00000+0  15466-3 0  9999
2 44537  97.4442  85.1474 0011143  43.2804  12.3104 15.19605502122511
ZHUHAI-1 03D            
1 44538U 19060E   21338.49470314  .00003261  00000+0  15637-3 0  9995
2 44538  97.4418  84.8633 0010039  32.4565  98.0212 15.19565564122508
ZHUHAI-1 03E            
1 44539U 19060F   21338.53311519  .00003240  00000+0  15545-3 0  9997
2 44539  97.4529  85.9652 0010053  52.2325   4.2869 15.19554646122512
BEIDOU-3 M23            
1 44542U 19061A   21338.47281859  .00000041  00000+0  22571+1 0  9998
2 44542  54.6454 238.7400 0009226 337.7607 149.0899  1.86231699 14959
BEIDOU-3 M24            
1 44543U 19061B   21338.15099544  .00000041  00000+0  10000-3 0  9999
2 44543  54.6439 238.7226 0006444 332.7357 209.3984  1.86231867 14946
YUNHAI 1-02             
1 44547U 19063A   21338.28651023  .00000174  00000+0  80153-4 0  9999
2 44547  98.5187   2.0860 0002460  66.1525 293.9916 14.32596126114731
COSMOS 2541             
1 44552U 19065A   21338.05335479 -.00001179  00000+0  00000+0 0  9991
2 44552  63.4395 330.6044 7042569 269.9379 160.9005  2.00638894 16031
GAOFEN 10R              
1 44622U 19066A   21338.40996448  .00000386  00000+0  56935-4 0  9999
2 44622  97.8731 275.9897 0001224  58.5128 301.6204 14.80645077117142
EUTELSAT 5 WEST B       
1 44624U 19067A   21338.23437616 -.00000029  00000+0  00000+0 0  9992
2 44624   0.0686  19.8885 0003560 127.9898   4.7795  1.00270903  7842
MEV-1                   
1 44625U 19067B   21337.49738641 -.00000450  00000+0  00000+0 0  9990
2 44625  51.6389 225.5617 0004535 264.0051 276.0775 15.48792552314839
ICON                    
1 44628U 19068A   21338.17594844  .00000907  00000+0  67405-4 0  9998
2 44628  26.9883 144.0737 0018901  22.4937 337.6446 14.92144826117355
PALISADE                
1 44634U 19069A   21338.29084325  .00000458  00000+0  12499-2 0  9999
2 44634  87.8939 248.6064 0008981 181.8024 178.3073 13.11830901102174
TJS-4                   
1 44637U 19070A   21338.40396459 -.00000156  00000+0  00000+0 0  9999
2 44637   0.0594  71.9363 0000842 266.1802 324.1859  1.00267560  7952
GAOFEN 7                
1 44703U 19072A   21338.51608840  .00001590  00000+0  74035-4 0  9993
2 44703  97.4259  55.0686 0011149 107.0697 347.9850 15.21322137115912
SRSS-1                  
1 44704U 19072B   21338.53186727  .00003075  00000+0  12172-3 0  9994
2 44704  97.4346  59.1987 0016520 116.7356 301.5261 15.26085164116156
HUANGPU-1               
1 44705U 19072C   21338.50121894  .00004784  00000+0  18611-3 0  9998
2 44705  97.4216  58.1105 0016263 118.1148   3.2636 15.26385652116150
XIAOXIANG 1-08          
1 44706U 19072D   21338.51690388  .00007634  00000+0  28322-3 0  9996
2 44706  97.4348  59.6274 0015395 115.1236  10.6998 15.27770590116186
BEIDOU-3 IGSO-3         
1 44709U 19073A   21338.27479924 -.00000208  00000+0  00000+0 0  9994
2 44709  57.5783 298.4050 0018980 187.1922 166.2182  1.00266209  7846
STARLINK-1007           
1 44713U 19074A   21338.36037375 -.00001705  00000+0 -95597-4 0  9994
2 44713  53.0509 333.2779 0001838  57.6867 302.4299 15.06387854114345
STARLINK-1008           
1 44714U 19074B   21338.27285149 -.00001861  00000+0 -10608-3 0  9991
2 44714  53.0559 333.6521 0001741  62.8074 297.3092 15.06389219114161
STARLINK-1009           
1 44715U 19074C   21338.39447892  .00000399  00000+0  45676-4 0  9997
2 44715  53.0556 333.1010 0001771  66.9243 293.1933 15.06403225114345
STARLINK-1010           
1 44716U 19074D   21338.21388766  .00000342  00000+0  41877-4 0  9990
2 44716  53.0568 333.9105 0001814  64.9519 295.1658 15.06392307114135
STARLINK-1011           
1 44717U 19074E   21338.27838269 -.00001231  00000+0 -63787-4 0  9999
2 44717  53.0551 353.6145 0001690  64.4961 295.6203 15.06390210113882
STARLINK-1012           
1 44718U 19074F   21338.25073228  .00000591  00000+0  58607-4 0  9995
2 44718  53.0556 333.7467 0001781  55.4850 304.6307 15.06397047114154
STARLINK-1013           
1 44719U 19074G   21338.25812835  .00005580  00000+0  39308-3 0  9990
2 44719  53.0552 333.7047 0001501  68.4462 291.6687 15.06411181115285
STARLINK-1014           
1 44720U 19074H   21338.40923840 -.00000019  00000+0  17637-4 0  9993
2 44720  53.0547 333.0354 0001691  57.8252 302.2901 15.06389115114350
STARLINK-1015           
1 44721U 19074J   21338.26548436 -.00000096  00000+0  12475-4 0  9992
2 44721  53.0546 333.6676 0001725  61.2173 298.8989 15.06391712114152
STARLINK-1016           
1 44722U 19074K   21338.26916650 -.00002087  00000+0 -12125-3 0  9994
2 44722  53.0559 333.6612 0001996  47.3088 312.8068 15.06387480114160
STARLINK-1017           
1 44723U 19074L   21338.21756434 -.00001813  00000+0 -10288-3 0  9996
2 44723  53.0569 333.9012 0001829  63.2705 296.8471 15.06390253114157
STARLINK-1019           
1 44724U 19074M   21338.37974826 -.00001549  00000+0 -85156-4 0  9994
2 44724  53.0558 333.1687 0001628  68.6413 291.4750 15.06388489114348
STARLINK-1020           
1 44725U 19074N   21338.25257832 -.00000346  00000+0 -43675-5 0  9998
2 44725  53.0552 353.7314 0001414  67.0421 293.0718 15.06395208113879
STARLINK-1021           
1 44726U 19074P   21338.37605931  .00000429  00000+0  47698-4 0  9997
2 44726  53.0557 333.1937 0001655  67.9129 292.2036 15.06394573114340
STARLINK-1022           
1 44727U 19074Q   21338.41292250 -.00001542  00000+0 -84668-4 0  9996
2 44727  53.0643  12.9850 0001555  68.4789 291.6365 15.06387241113802
STARLINK-1023           
1 44728U 19074R   21338.19876401  .00276464  00000+0  96449-3 0  9992
2 44728  53.0517 280.1047 0001396  86.3483 273.7701 15.88071346114906
STARLINK-1024           
1 44729U 19074S   21338.23832864  .00006736  00000+0  44687-3 0  9993
2 44729  53.0015 350.1289 0001658  65.2308 294.8854 15.08336816113909
STARLINK-1026           
1 44731U 19074U   21338.25442744 -.00000081  00000+0  13452-4 0  9997
2 44731  53.0543 333.7299 0001772  54.9257 305.1898 15.06390839114156
STARLINK-1027           
1 44732U 19074V   21338.37420516  .00000331  00000+0  41123-4 0  9997
2 44732  53.0548 353.1943 0001667  67.9075 292.2090 15.06402325114063
STARLINK-1028           
1 44733U 19074W   21338.37236858  .00000266  00000+0  36730-4 0  9997
2 44733  53.0563 333.2050 0001578  54.2129 305.9006 15.06397246114344
